[{"OBJECT_NAME":"STARLINK-11265 [DTC]","OBJECT_ID":"2024-154G","EPOCH":"2025-09-11T02:31:49.406880","MEAN_MOTION":15.69703079,"ECCENTRICITY":0.00014725,"INCLINATION":53.1597,"RA_OF_ASC_NODE":296.917,"ARG_OF_PERICENTER":95.1512,"MEAN_ANOMALY":264.9674,"EPHEMERIS_TYPE":0,"CLASSIFICATION_TYPE":"U","NORAD_CAT_ID":60909,"ELEMENT_SET_NO":999,"REV_AT_EPOCH":6030,"BSTAR":4.611155e-6,"MEAN_MOTION_DOT":-3.1e-7,"MEAN_MOTION_DDOT":0},{"OBJECT_NAME":"STARLINK-11250 [DTC]","OBJECT_ID":"2024-154H","EPOCH":"2025-09-12T11:33:33.114528","MEAN_MOTION":15.69704994,"ECCENTRICITY":8.928e-5,"INCLINATION":53.1588,"RA_OF_ASC_NODE":289.8484,"ARG_OF_PERICENTER":59.3382,"MEAN_ANOMALY":300.7724,"EPHEMERIS_TYPE":0,"CLASSIFICATION_TYPE":"U","NORAD_CAT_ID":60910,"ELEMENT_SET_NO":999,"REV_AT_EPOCH":6052,"BSTAR":4.54298e-6,"MEAN_MOTION_DOT":-3.8e-7,"MEAN_MOTION_DDOT":0},{"OBJECT_NAME":"STARLINK-11190 [DTC]","OBJECT_ID":"2024-154J","EPOCH":"2025-09-09T10:05:38.960448","MEAN_MOTION":15.69714777,"ECCENTRICITY":0.00011417,"INCLINATION":53.1588,"RA_OF_ASC_NODE":304.883,"ARG_OF_PERICENTER":92.1854,"MEAN_ANOMALY":267.9294,"EPHEMERIS_TYPE":0,"CLASSIFICATION_TYPE":"U","NORAD_CAT_ID":60911,"ELEMENT_SET_NO":999,"REV_AT_EPOCH":6003,"BSTAR":1.677407e-5,"MEAN_MOTION_DOT":1.444e-5,"MEAN_MOTION_DDOT":0},{"OBJECT_NAME":"STARLINK-11225 [DTC]","OBJECT_ID":"2024-154K","EPOCH":"2025-09-11T09:20:47.591808","MEAN_MOTION":15.69707449,"ECCENTRICITY":0.00014133,"INCLINATION":53.1582,"RA_OF_ASC_NODE":295.1196,"ARG_OF_PERICENTER":83.0047,"MEAN_ANOMALY":277.1132,"EPHEMERIS_TYPE":0,"CLASSIFICATION_TYPE":"U","NORAD_CAT_ID":60912,"ELEMENT_SET_NO":999,"REV_AT_EPOCH":6034,"BSTAR":9.108203e-6,"MEAN_MOTION_DOT":5.14e-6,"MEAN_MOTION_DDOT":0},{"OBJECT_NAME":"STARLINK-11273 [DTC]","OBJECT_ID":"2024-154L","EPOCH":"2025-09-11T09:13:44.101344","MEAN_MOTION":15.69702776,"ECCENTRICITY":0.00015301,"INCLINATION":53.1584,"RA_OF_ASC_NODE":295.0853,"ARG_OF_PERICENTER":77.3988,"MEAN_ANOMALY":282.7201,"EPHEMERIS_TYPE":0,"CLASSIFICATION_TYPE":"U","NORAD_CAT_ID":60913,"ELEMENT_SET_NO":999,"REV_AT_EPOCH":6034,"BSTAR":-5.92181e-7,"MEAN_MOTION_DOT":-6.61e-6,"MEAN_MOTION_DDOT":0},{"OBJECT_NAME":"STARLINK-11248 [DTC]","OBJECT_ID":"2024-154M","EPOCH":"2025-09-12T12:36:58.416768","MEAN_MOTION":15.69727232,"ECCENTRICITY":0.00020169,"INCLINATION":53.1594,"RA_OF_ASC_NODE":289.4043,"ARG_OF_PERICENTER":79.3069,"MEAN_ANOMALY":280.8176,"EPHEMERIS_TYPE":0,"CLASSIFICATION_TYPE":"U","NORAD_CAT_ID":60914,"ELEMENT_SET_NO":999,"REV_AT_EPOCH":6052,"BSTAR":1.7343973e-5,"MEAN_MOTION_DOT":1.513e-5,"MEAN_MOTION_DDOT":0},{"OBJECT_NAME":"STARLINK-11271 [DTC]","OBJECT_ID":"2024-154N","EPOCH":"2025-09-12T12:29:55.087872","MEAN_MOTION":15.69701713,"ECCENTRICITY":0.00011812,"INCLINATION":53.1584,"RA_OF_ASC_NODE":289.3723,"ARG_OF_PERICENTER":68.6502,"MEAN_ANOMALY":291.4642,"EPHEMERIS_TYPE":0,"CLASSIFICATION_TYPE":"U","NORAD_CAT_ID":60915,"ELEMENT_SET_NO":999,"REV_AT_EPOCH":6052,"BSTAR":-3.518514e-6,"MEAN_MOTION_DOT":-1.015e-5,"MEAN_MOTION_DDOT":0},{"OBJECT_NAME":"STARLINK-32371","OBJECT_ID":"2024-154P","EPOCH":"2025-09-11T15:41:08.685600","MEAN_MOTION":15.30192519,"ECCENTRICITY":0.00011225,"INCLINATION":53.1615,"RA_OF_ASC_NODE":35.4525,"ARG_OF_PERICENTER":82.5246,"MEAN_ANOMALY":277.5882,"EPHEMERIS_TYPE":0,"CLASSIFICATION_TYPE":"U","NORAD_CAT_ID":60916,"ELEMENT_SET_NO":999,"REV_AT_EPOCH":5892,"BSTAR":-1.952161e-5,"MEAN_MOTION_DOT":-9.37e-6,"MEAN_MOTION_DDOT":0},{"OBJECT_NAME":"STARLINK-32369","OBJECT_ID":"2024-154Q","EPOCH":"2025-09-11T16:47:50.553024","MEAN_MOTION":15.30191787,"ECCENTRICITY":0.00011886,"INCLINATION":53.1616,"RA_OF_ASC_NODE":35.0332,"ARG_OF_PERICENTER":86.3827,"MEAN_ANOMALY":273.731,"EPHEMERIS_TYPE":0,"CLASSIFICATION_TYPE":"U","NORAD_CAT_ID":60917,"ELEMENT_SET_NO":999,"REV_AT_EPOCH":5893,"BSTAR":1.7303224e-5,"MEAN_MOTION_DOT":1.53e-6,"MEAN_MOTION_DDOT":0},{"OBJECT_NAME":"STARLINK-32317","OBJECT_ID":"2024-154R","EPOCH":"2025-09-11T16:17:36.710304","MEAN_MOTION":15.30192772,"ECCENTRICITY":0.0001184,"INCLINATION":53.162,"RA_OF_ASC_NODE":35.6125,"ARG_OF_PERICENTER":80.1999,"MEAN_ANOMALY":279.9135,"EPHEMERIS_TYPE":0,"CLASSIFICATION_TYPE":"U","NORAD_CAT_ID":60918,"ELEMENT_SET_NO":999,"REV_AT_EPOCH":5892,"BSTAR":3.4814465e-5,"MEAN_MOTION_DOT":6.72e-6,"MEAN_MOTION_DDOT":0},{"OBJECT_NAME":"STARLINK-32367","OBJECT_ID":"2024-154S","EPOCH":"2025-09-12T09:45:42.469920","MEAN_MOTION":15.30192582,"ECCENTRICITY":0.00010305,"INCLINATION":53.1629,"RA_OF_ASC_NODE":31.6245,"ARG_OF_PERICENTER":99.13,"MEAN_ANOMALY":260.9817,"EPHEMERIS_TYPE":0,"CLASSIFICATION_TYPE":"U","NORAD_CAT_ID":60919,"ELEMENT_SET_NO":999,"REV_AT_EPOCH":5904,"BSTAR":4.8074455e-5,"MEAN_MOTION_DOT":1.065e-5,"MEAN_MOTION_DDOT":0},{"OBJECT_NAME":"STARLINK-32345","OBJECT_ID":"2024-154T","EPOCH":"2025-09-11T16:19:07.949568","MEAN_MOTION":15.3019345,"ECCENTRICITY":0.00011618,"INCLINATION":53.1622,"RA_OF_ASC_NODE":35.6177,"ARG_OF_PERICENTER":83.4366,"MEAN_ANOMALY":276.6767,"EPHEMERIS_TYPE":0,"CLASSIFICATION_TYPE":"U","NORAD_CAT_ID":60920,"ELEMENT_SET_NO":999,"REV_AT_EPOCH":5893,"BSTAR":2.0616506e-5,"MEAN_MOTION_DOT":2.51e-6,"MEAN_MOTION_DDOT":0},{"OBJECT_NAME":"STARLINK-32356","OBJECT_ID":"2024-154U","EPOCH":"2025-09-11T17:01:32.062368","MEAN_MOTION":15.30169036,"ECCENTRICITY":0.00012316,"INCLINATION":53.1635,"RA_OF_ASC_NODE":35.0881,"ARG_OF_PERICENTER":77.5675,"MEAN_ANOMALY":282.5464,"EPHEMERIS_TYPE":0,"CLASSIFICATION_TYPE":"U","NORAD_CAT_ID":60921,"ELEMENT_SET_NO":999,"REV_AT_EPOCH":5894,"BSTAR":-7.0760334e-5,"MEAN_MOTION_DOT":-2.452e-5,"MEAN_MOTION_DDOT":0},{"OBJECT_NAME":"STARLINK-32274","OBJECT_ID":"2024-154V","EPOCH":"2025-09-11T15:51:46.210464","MEAN_MOTION":15.30177776,"ECCENTRICITY":4.018e-5,"INCLINATION":53.1616,"RA_OF_ASC_NODE":35.4965,"ARG_OF_PERICENTER":88.2081,"MEAN_ANOMALY":271.8966,"EPHEMERIS_TYPE":0,"CLASSIFICATION_TYPE":"U","NORAD_CAT_ID":60922,"ELEMENT_SET_NO":999,"REV_AT_EPOCH":5893,"BSTAR":8.2468323e-5,"MEAN_MOTION_DOT":2.083e-5,"MEAN_MOTION_DDOT":0},{"OBJECT_NAME":"STARLINK-32373","OBJECT_ID":"2024-154W","EPOCH":"2025-09-11T16:05:27.153024","MEAN_MOTION":15.30196485,"ECCENTRICITY":0.000101,"INCLINATION":53.1621,"RA_OF_ASC_NODE":35.5547,"ARG_OF_PERICENTER":78.1231,"MEAN_ANOMALY":281.9883,"EPHEMERIS_TYPE":0,"CLASSIFICATION_TYPE":"U","NORAD_CAT_ID":60923,"ELEMENT_SET_NO":999,"REV_AT_EPOCH":5893,"BSTAR":3.5082212e-5,"MEAN_MOTION_DOT":6.8e-6,"MEAN_MOTION_DDOT":0},{"OBJECT_NAME":"STARLINK-11239 [DTC]","OBJECT_ID":"2024-155A","EPOCH":"2025-09-12T09:23:08.071296","MEAN_MOTION":15.69703014,"ECCENTRICITY":0.00011355,"INCLINATION":53.1586,"RA_OF_ASC_NODE":140.5664,"ARG_OF_PERICENTER":82.3625,"MEAN_ANOMALY":277.7521,"EPHEMERIS_TYPE":0,"CLASSIFICATION_TYPE":"U","NORAD_CAT_ID":60924,"ELEMENT_SET_NO":999,"REV_AT_EPOCH":6039,"BSTAR":-3.27856e-7,"MEAN_MOTION_DOT":-6.28e-6,"MEAN_MOTION_DDOT":0}]
