STARLINK-11265 [DTC]    
1 60909U 24154G   25254.10543295 -.00000031  00000+0  46112-5 0  9990
2 60909  53.1597 296.9170 0001472  95.1512 264.9674 15.69703079 60301
STARLINK-11250 [DTC]    
1 60910U 24154H   25255.48163327 -.00000038  00000+0  45430-5 0  9997
2 60910  53.1588 289.8484 0000892  59.3382 300.7724 15.69704994 60520
STARLINK-11190 [DTC]    
1 60911U 24154J   25252.42058982  .00001444  00000+0  16774-4 0  9998
2 60911  53.1588 304.8830 0001141  92.1854 267.9294 15.69714777 60033
STARLINK-11225 [DTC]    
1 60912U 24154K   25254.38943972  .00000514  00000+0  91082-5 0  9991
2 60912  53.1582 295.1196 0001413  83.0047 277.1132 15.69707449 60346
STARLINK-11273 [DTC]    
1 60913U 24154L   25254.38453821 -.00000661  00000+0 -59218-6 0  9992
2 60913  53.1584 295.0853 0001530  77.3988 282.7201 15.69702776 60345
STARLINK-11248 [DTC]    
1 60914U 24154M   25255.52567612  .00001513  00000+0  17344-4 0  9991
2 60914  53.1594 289.4043 0002016  79.3069 280.8176 15.69727232 60521
STARLINK-11271 [DTC]    
1 60915U 24154N   25255.52077648 -.00001015  00000+0 -35185-5 0  9990
2 60915  53.1584 289.3723 0001181  68.6502 291.4642 15.69701713 60522
STARLINK-32371          
1 60916U 24154P   25254.65357275 -.00000937  00000+0 -19522-4 0  9999
2 60916  53.1615  35.4525 0001122  82.5246 277.5882 15.30192519 58921
STARLINK-32369          
1 60917U 24154Q   25254.69989066  .00000153  00000+0  17303-4 0  9996
2 60917  53.1616  35.0332 0001188  86.3827 273.7310 15.30191787 58935
STARLINK-32317          
1 60918U 24154R   25254.67889711  .00000672  00000+0  34814-4 0  9993
2 60918  53.1620  35.6125 0001184  80.1999 279.9135 15.30192772 58922
STARLINK-32367          
1 60919U 24154S   25255.40674155  .00001065  00000+0  48074-4 0  9990
2 60919  53.1629  31.6245 0001030  99.1300 260.9817 15.30192582 59047
STARLINK-32345          
1 60920U 24154T   25254.67995312  .00000251  00000+0  20617-4 0  9990
2 60920  53.1622  35.6177 0001161  83.4366 276.6767 15.30193450 58933
STARLINK-32356          
1 60921U 24154U   25254.70939887 -.00002452  00000+0 -70760-4 0  9991
2 60921  53.1635  35.0881 0001231  77.5675 282.5464 15.30169036 58943
STARLINK-32274          
1 60922U 24154V   25254.66095151  .00002083  00000+0  82468-4 0  9990
2 60922  53.1616  35.4965 0000401  88.2081 271.8966 15.30177776 58935
STARLINK-32373          
1 60923U 24154W   25254.67045316  .00000680  00000+0  35082-4 0  9991
2 60923  53.1621  35.5547 0001010  78.1231 281.9883 15.30196485 58939
STARLINK-11239 [DTC]    
1 60924U 24155A   25255.39106564 -.00000628  00000+0 -32786-6 0  9990
2 60924  53.1586 140.5664 0001135  82.3625 277.7521 15.69703014 60398
